[
  { "name": "岸田文雄", "nameKana": "キシダ フミオ", "party": "自由民主党", "chamber": "HOUSE_OF_REPRESENTATIVES", "district": "広島1区", "prefectureCode": "34" },
  { "name": "石破茂", "nameKana": "イシバ シゲル", "party": "自由民主党", "chamber": "HOUSE_OF_REPRESENTATIVES", "district": "鳥取1区", "prefectureCode": "31" },
  { "name": "河野太郎", "nameKana": "コウノ タロウ", "party": "自由民主党", "chamber": "HOUSE_OF_REPRESENTATIVES", "district": "神奈川15区", "prefectureCode": "14" },
  { "name": "高市早苗", "nameKana": "タカイチ サナエ", "party": "自由民主党", "chamber": "HOUSE_OF_REPRESENTATIVES", "district": "奈良2区", "prefectureCode": "29" },
  { "name": "茂木敏充", "nameKana": "モテギ トシミツ", "party": "自由民主党", "chamber": "HOUSE_OF_REPRESENTATIVES", "district": "栃木5区", "prefectureCode": "09" },
  { "name": "萩生田光一", "nameKana": "ハギウダ コウイチ", "party": "自由民主党", "chamber": "HOUSE_OF_REPRESENTATIVES", "district": "東京24区", "prefectureCode": "13" },
  { "name": "西村康稔", "nameKana": "ニシムラ ヤストシ", "party": "自由民主党", "chamber": "HOUSE_OF_REPRESENTATIVES", "district": "兵庫9区", "prefectureCode": "28" },
  { "name": "林芳正", "nameKana": "ハヤシ ヨシマサ", "party": "自由民主党", "chamber": "HOUSE_OF_REPRESENTATIVES", "district": "山口3区", "prefectureCode": "35" },
  { "name": "加藤勝信", "nameKana": "カトウ カツノブ", "party": "自由民主党", "chamber": "HOUSE_OF_REPRESENTATIVES", "district": "岡山5区", "prefectureCode": "33" },
  { "name": "松野博一", "nameKana": "マツノ ヒロカズ", "party": "自由民主党", "chamber": "HOUSE_OF_REPRESENTATIVES", "district": "千葉3区", "prefectureCode": "12" },
  { "name": "泉健太", "nameKana": "イズミ ケンタ", "party": "立憲民主党", "chamber": "HOUSE_OF_REPRESENTATIVES", "district": "京都3区", "prefectureCode": "26" },
  { "name": "野田佳彦", "nameKana": "ノダ ヨシヒコ", "party": "立憲民主党", "chamber": "HOUSE_OF_REPRESENTATIVES", "district": "千葉4区", "prefectureCode": "12" },
  { "name": "枝野幸男", "nameKana": "エダノ ユキオ", "party": "立憲民主党", "chamber": "HOUSE_OF_REPRESENTATIVES", "district": "埼玉5区", "prefectureCode": "11" },
  { "name": "蓮舫", "nameKana": "レンホウ", "party": "無所属", "chamber": "HOUSE_OF_COUNCILLORS", "district": "東京都", "prefectureCode": "13" },
  { "name": "辻元清美", "nameKana": "ツジモト キヨミ", "party": "立憲民主党", "chamber": "HOUSE_OF_COUNCILLORS", "district": "大阪府", "prefectureCode": "27" },
  { "name": "馬場伸幸", "nameKana": "ババ ノブユキ", "party": "日本維新の会", "chamber": "HOUSE_OF_REPRESENTATIVES", "district": "大阪17区", "prefectureCode": "27" },
  { "name": "藤田文武", "nameKana": "フジタ フミタケ", "party": "日本維新の会", "chamber": "HOUSE_OF_REPRESENTATIVES", "district": "大阪12区", "prefectureCode": "27" },
  { "name": "音喜多駿", "nameKana": "オトキタ シュン", "party": "日本維新の会", "chamber": "HOUSE_OF_COUNCILLORS", "district": "東京都", "prefectureCode": "13" },
  { "name": "石井啓一", "nameKana": "イシイ ケイイチ", "party": "公明党", "chamber": "HOUSE_OF_REPRESENTATIVES", "district": "比例北関東", "prefectureCode": "11" },
  { "name": "志位和夫", "nameKana": "シイ カズオ", "party": "日本共産党", "chamber": "HOUSE_OF_REPRESENTATIVES", "district": "比例南関東", "prefectureCode": "12" },
  { "name": "田村智子", "nameKana": "タムラ トモコ", "party": "日本共産党", "chamber": "HOUSE_OF_COUNCILLORS", "district": "比例", "prefectureCode": "13" },
  { "name": "玉木雄一郎", "nameKana": "タマキ ユウイチロウ", "party": "国民民主党", "chamber": "HOUSE_OF_REPRESENTATIVES", "district": "香川2区", "prefectureCode": "37" },
  { "name": "前原誠司", "nameKana": "マエハラ セイジ", "party": "中道改革連合", "chamber": "HOUSE_OF_REPRESENTATIVES", "district": "京都2区", "prefectureCode": "26" },
  { "name": "福島瑞穂", "nameKana": "フクシマ ミズホ", "party": "社会民主党", "chamber": "HOUSE_OF_COUNCILLORS", "district": "比例", "prefectureCode": "13" },
  { "name": "山本太郎", "nameKana": "ヤマモト タロウ", "party": "れいわ新選組", "chamber": "HOUSE_OF_COUNCILLORS", "district": "東京都", "prefectureCode": "13" },
  { "name": "大石あきこ", "nameKana": "オオイシ アキコ", "party": "れいわ新選組", "chamber": "HOUSE_OF_REPRESENTATIVES", "district": "大阪5区", "prefectureCode": "27" },
  { "name": "鈴木宗男", "nameKana": "スズキ ムネオ", "party": "日本維新の会", "chamber": "HOUSE_OF_COUNCILLORS", "district": "比例", "prefectureCode": "01" },
  { "name": "世耕弘成", "nameKana": "セコウ ヒロシゲ", "party": "無所属", "chamber": "HOUSE_OF_REPRESENTATIVES", "district": "和歌山2区", "prefectureCode": "30" },
  { "name": "小池晃", "nameKana": "コイケ アキラ", "party": "日本共産党", "chamber": "HOUSE_OF_COUNCILLORS", "district": "比例", "prefectureCode": "13" },
  { "name": "片山さつき", "nameKana": "カタヤマ サツキ", "party": "自由民主党", "chamber": "HOUSE_OF_COUNCILLORS", "district": "比例", "prefectureCode": "13" },
  { "name": "小泉進次郎", "nameKana": "コイズミ シンジロウ", "party": "自由民主党", "chamber": "HOUSE_OF_REPRESENTATIVES", "district": "神奈川11区", "prefectureCode": "14" },
  { "name": "上川陽子", "nameKana": "カミカワ ヨウコ", "party": "自由民主党", "chamber": "HOUSE_OF_REPRESENTATIVES", "district": "静岡1区", "prefectureCode": "22" },
  { "name": "鈴木俊一", "nameKana": "スズキ シュンイチ", "party": "自由民主党", "chamber": "HOUSE_OF_REPRESENTATIVES", "district": "岩手2区", "prefectureCode": "03" },
  { "name": "浜田靖一", "nameKana": "ハマダ ヤスカズ", "party": "自由民主党", "chamber": "HOUSE_OF_REPRESENTATIVES", "district": "千葉12区", "prefectureCode": "12" },
  { "name": "長妻昭", "nameKana": "ナガツマ アキラ", "party": "立憲民主党", "chamber": "HOUSE_OF_REPRESENTATIVES", "district": "東京7区", "prefectureCode": "13" },
  { "name": "安住淳", "nameKana": "アズミ ジュン", "party": "立憲民主党", "chamber": "HOUSE_OF_REPRESENTATIVES", "district": "宮城5区", "prefectureCode": "04" },
  { "name": "大串博志", "nameKana": "オオグシ ヒロシ", "party": "立憲民主党", "chamber": "HOUSE_OF_REPRESENTATIVES", "district": "佐賀2区", "prefectureCode": "41" }
]
